STARLINK-2194_new
1 17771C 21017BB  21326.13681134  .00006178  00000-0  41389-3 0  3262
2 17771  53.0563  48.1179 0001359  63.6372 356.0457 15.06397884    17
STARLINK-2194_old
1 27771C 21017BB  21325.14079542  .00006951  00000-0  46583-3 0  3255
2 27771  53.0564  52.5888 0001401  64.4509 350.8351 15.06384710    12
